{"type": "FeatureCollection", "features": [ {"type": "Feature", "properties": {"norad_id": 34682, "name": "COSMOS 2251 DEB", "group": "cosmos-2251-debris", "lat": -30.79000069264987, "lon": 69.1285453543089, "alt_km": 708.0350272215119, "timestamp": "2025-12-14T20:40:32.167850+00:00", "meta": {"OBJECT_NAME": "COSMOS 2251 DEB", "OBJECT_ID": "1993-036YC", "EPOCH": "2025-12-14T07:58:27.200928", "MEAN_MOTION": 14.5891274, "ECCENTRICITY": 0.00182533, "INCLINATION": 74.0398, "RA_OF_ASC_NODE": 79.9547, "ARG_OF_PERICENTER": 212.7527, "MEAN_ANOMALY": 216.6, "EPHEMERIS_TYPE": 0, "CLASSIFICATION_TYPE": "U", "NORAD_CAT_ID": 34682, "ELEMENT_SET_NO": 999, "REV_AT_EPOCH": 88709, "BSTAR": 0.00090008229, "MEAN_MOTION_DOT": 4.201e-05, "MEAN_MOTION_DDOT": 0}, "tle": {"line1": "1 34682U 93036YC  25348.33225927  .00004201  00000+0  90008-3 0  9995", "line2": "2 34682  74.0398  79.9547 0018253 212.7527 216.6000 14.58912740887090"}}, "geometry": {"type": "Point", "coordinates": [69.1285453543089, -30.79000069264987]}}, {"type": "Feature", "properties": {"norad_id": 34683, "name": "COSMOS 2251 DEB", "group": "cosmos-2251-debris", "lat": 16.337061520529836, "lon": -96.6275461240027, "alt_km": 669.1039240248247, "timestamp": "2025-12-14T20:40:32.167860+00:00", "meta": {"OBJECT_NAME": "COSMOS 2251 DEB", "OBJECT_ID": "1993-036YD", "EPOCH": "2025-12-14T06:55:16.548672", "MEAN_MOTION": 14.64519004, "ECCENTRICITY": 0.00180948, "INCLINATION": 74.029, "RA_OF_ASC_NODE": 89.2894, "ARG_OF_PERICENTER": 204.1924, "MEAN_ANOMALY": 178.533, "EPHEMERIS_TYPE": 0, "CLASSIFICATION_TYPE": "U", "NORAD_CAT_ID": 34683, "ELEMENT_SET_NO": 999, "REV_AT_EPOCH": 88371, "BSTAR": 0.0014843723, "MEAN_MOTION_DOT": 7.867e-05, "MEAN_MOTION_DDOT": 0}, "tle": {"line1": "1 34683U 93036YD  25348.28838598  .00007867  00000+0  14844-2 0  9998", "line2": "2 34683  74.0290  89.2894 0018094 204.1924 178.5330 14.64519004883710"}}, "geometry": {"type": "Point", "coordinates": [-96.6275461240027, 16.337061520529836]}}, {"type": "Feature", "properties": {"norad_id": 34685, "name": "COSMOS 2251 DEB", "group": "cosmos-2251-debris", "lat": -71.436193658496, "lon": 23.263168756665678, "alt_km": 698.1683403355801, "timestamp": "2025-12-14T20:40:32.167870+00:00", "meta": {"OBJECT_NAME": "COSMOS 2251 DEB", "OBJECT_ID": "1993-036YF", "EPOCH": "2025-12-14T05:28:16.639104", "MEAN_MOTION": 14.57526764, "ECCENTRICITY": 0.00142963, "INCLINATION": 74.0288, "RA_OF_ASC_NODE": 145.9527, "ARG_OF_PERICENTER": 250.3145, "MEAN_ANOMALY": 287.3112, "EPHEMERIS_TYPE": 0, "CLASSIFICATION_TYPE": "U", "NORAD_CAT_ID": 34685, "ELEMENT_SET_NO": 999, "REV_AT_EPOCH": 88553, "BSTAR": 0.0012262365, "MEAN_MOTION_DOT": 5.559e-05, "MEAN_MOTION_DDOT": 0}, "tle": {"line1": "1 34685U 93036YF  25348.22797036  .00005559  00000+0  12262-2 0  9993", "line2": "2 34685  74.0288 145.9527 0014296 250.3145 287.3112 14.57526764885532"}}, "geometry": {"type": "Point", "coordinates": [23.263168756665678, -71.436193658496]}}, {"type": "Feature", "properties": {"norad_id": 34689, "name": "COSMOS 2251 DEB", "group": "cosmos-2251-debris", "lat": 56.111629891917616, "lon": -115.16980764362611, "alt_km": 980.1643690863457, "timestamp": "2025-12-14T20:40:32.167880+00:00", "meta": {"OBJECT_NAME": "COSMOS 2251 DEB", "OBJECT_ID": "1993-036YK", "EPOCH": "2025-12-14T02:11:06.985248", "MEAN_MOTION": 14.04477283, "ECCENTRICITY": 0.02276173, "INCLINATION": 74.0925, "RA_OF_ASC_NODE": 221.0456, "ARG_OF_PERICENTER": 289.6328, "MEAN_ANOMALY": 194.2542, "EPHEMERIS_TYPE": 0, "CLASSIFICATION_TYPE": "U", "NORAD_CAT_ID": 34689, "ELEMENT_SET_NO": 999, "REV_AT_EPOCH": 84360, "BSTAR": 0.0035728777, "MEAN_MOTION_DOT": 7.161e-05, "MEAN_MOTION_DDOT": 0}, "tle": {"line1": "1 34689U 93036YK  25348.09105307  .00007161  00000+0  35729-2 0  9990", "line2": "2 34689  74.0925 221.0456 0227617 289.6328 194.2542 14.04477283843600"}}, "geometry": {"type": "Point", "coordinates": [-115.16980764362611, 56.111629891917616]}}, {"type": "Feature", "properties": {"norad_id": 34721, "name": "COSMOS 2251 DEB", "group": "cosmos-2251-debris", "lat": 30.364331664377143, "lon": -27.70496429479725, "alt_km": 1006.7405438444566, "timestamp": "2025-12-14T20:40:32.167890+00:00", "meta": {"OBJECT_NAME": "COSMOS 2251 DEB", "OBJECT_ID": "1993-036YP", "EPOCH": "2025-12-14T05:06:19.184256", "MEAN_MOTION": 13.96862294, "ECCENTRICITY": 0.02235784, "INCLINATION": 73.9239, "RA_OF_ASC_NODE": 323.6938, "ARG_OF_PERICENTER": 262.3875, "MEAN_ANOMALY": 106.3033, "EPHEMERIS_TYPE": 0, "CLASSIFICATION_TYPE": "U", "NORAD_CAT_ID": 34721, "ELEMENT_SET_NO": 999, "REV_AT_EPOCH": 85170, "BSTAR": 0.0016181108, "MEAN_MOTION_DOT": 2.755e-05, "MEAN_MOTION_DDOT": 0}, "tle": {"line1": "1 34721U 93036YP  25348.21272204  .00002755  00000+0  16181-2 0  9997", "line2": "2 34721  73.9239 323.6938 0223578 262.3875 106.3033 13.96862294851703"}}, "geometry": {"type": "Point", "coordinates": [-27.70496429479725, 30.364331664377143]}}, {"type": "Feature", "properties": {"norad_id": 34722, "name": "COSMOS 2251 DEB", "group": "cosmos-2251-debris", "lat": 11.779830355500168, "lon": -24.256031108864775, "alt_km": 902.8987921643184, "timestamp": "2025-12-14T20:40:32.167900+00:00", "meta": {"OBJECT_NAME": "COSMOS 2251 DEB", "OBJECT_ID": "1993-036YQ", "EPOCH": "2025-12-13T09:38:24.756288", "MEAN_MOTION": 14.11938641, "ECCENTRICITY": 0.01671118, "INCLINATION": 73.8733, "RA_OF_ASC_NODE": 334.8872, "ARG_OF_PERICENTER": 260.3338, "MEAN_ANOMALY": 252.9898, "EPHEMERIS_TYPE": 0, "CLASSIFICATION_TYPE": "U", "NORAD_CAT_ID": 34722, "ELEMENT_SET_NO": 999, "REV_AT_EPOCH": 86254, "BSTAR": 0.0012527727, "MEAN_MOTION_DOT": 2.586e-05, "MEAN_MOTION_DDOT": 0}, "tle": {"line1": "1 34722U 93036YQ  25347.40167542  .00002586  00000+0  12528-2 0  9999", "line2": "2 34722  73.8733 334.8872 0167111 260.3338 252.9898 14.11938641862544"}}, "geometry": {"type": "Point", "coordinates": [-24.256031108864775, 11.779830355500168]}}, {"type": "Feature", "properties": {"norad_id": 34726, "name": "COSMOS 2251 DEB", "group": "cosmos-2251-debris", "lat": 39.144317747953444, "lon": -4.243010088596674, "alt_km": 692.0785680679528, "timestamp": "2025-12-14T20:40:32.167910+00:00", "meta": {"OBJECT_NAME": "COSMOS 2251 DEB", "OBJECT_ID": "1993-036YU", "EPOCH": "2025-12-14T02:23:29.945760", "MEAN_MOTION": 14.59489117, "ECCENTRICITY": 0.00419238, "INCLINATION": 74.0291, "RA_OF_ASC_NODE": 343.7295, "ARG_OF_PERICENTER": 134.147, "MEAN_ANOMALY": 226.3155, "EPHEMERIS_TYPE": 0, "CLASSIFICATION_TYPE": "U", "NORAD_CAT_ID": 34726, "ELEMENT_SET_NO": 999, "REV_AT_EPOCH": 88522, "BSTAR": 0.00051466626, "MEAN_MOTION_DOT": 2.443e-05, "MEAN_MOTION_DDOT": 0}, "tle": {"line1": "1 34726U 93036YU  25348.09965215  .00002443  00000+0  51467-3 0  9990", "line2": "2 34726  74.0291 343.7295 0041923 134.1470 226.3155 14.59489117885227"}}, "geometry": {"type": "Point", "coordinates": [-4.243010088596674, 39.144317747953444]}}, {"type": "Feature", "properties": {"norad_id": 34728, "name": "COSMOS 2251 DEB", "group": "cosmos-2251-debris", "lat": 5.799793268450019, "lon": -110.68456810862686, "alt_km": 637.5150438722594, "timestamp": "2025-12-14T20:40:32.167920+00:00", "meta": {"OBJECT_NAME": "COSMOS 2251 DEB", "OBJECT_ID": "1993-036YW", "EPOCH": "2025-12-12T11:30:55.868256", "MEAN_MOTION": 14.70844464, "ECCENTRICITY": 0.00410267, "INCLINATION": 74.0168, "RA_OF_ASC_NODE": 252.2746, "ARG_OF_PERICENTER": 49.9688, "MEAN_ANOMALY": 310.5071, "EPHEMERIS_TYPE": 0, "CLASSIFICATION_TYPE": "U", "NORAD_CAT_ID": 34728, "ELEMENT_SET_NO": 999, "REV_AT_EPOCH": 88796, "BSTAR": 0.0012358203, "MEAN_MOTION_DOT": 7.631e-05, "MEAN_MOTION_DDOT": 0}, "tle": {"line1": "1 34728U 93036YW  25346.47981329  .00007631  00000+0  12358-2 0  9995", "line2": "2 34728  74.0168 252.2746 0041026  49.9688 310.5071 14.70844464887964"}}, "geometry": {"type": "Point", "coordinates": [-110.68456810862686, 5.799793268450019]}}, {"type": "Feature", "properties": {"norad_id": 34729, "name": "COSMOS 2251 DEB", "group": "cosmos-2251-debris", "lat": 63.46640570841276, "lon": 139.19956372775422, "alt_km": 605.4363797003498, "timestamp": "2025-12-14T20:40:32.167930+00:00", "meta": {"OBJECT_NAME": "COSMOS 2251 DEB", "OBJECT_ID": "1993-036YX", "EPOCH": "2025-12-14T07:18:23.842368", "MEAN_MOTION": 14.82861064, "ECCENTRICITY": 0.00118207, "INCLINATION": 74.0182, "RA_OF_ASC_NODE": 355.3305, "ARG_OF_PERICENTER": 113.2906, "MEAN_ANOMALY": 265.7063, "EPHEMERIS_TYPE": 0, "CLASSIFICATION_TYPE": "U", "NORAD_CAT_ID": 34729, "ELEMENT_SET_NO": 999, "REV_AT_EPOCH": 88481, "BSTAR": 0.0020581745, "MEAN_MOTION_DOT": 0.00016701, "MEAN_MOTION_DDOT": 0}, "tle": {"line1": "1 34729U 93036YX  25348.30444262  .00016701  00000+0  20582-2 0  9996", "line2": "2 34729  74.0182 355.3305 0011820 113.2906 265.7063 14.82861064884815"}}, "geometry": {"type": "Point", "coordinates": [139.19956372775422, 63.46640570841276]}}, {"type": "Feature", "properties": {"norad_id": 34732, "name": "COSMOS 2251 DEB", "group": "cosmos-2251-debris", "lat": 61.52343153818146, "lon": 121.05315299763578, "alt_km": 756.694199198244, "timestamp": "2025-12-14T20:40:32.167940+00:00", "meta": {"OBJECT_NAME": "COSMOS 2251 DEB", "OBJECT_ID": "1993-036ZA", "EPOCH": "2025-12-12T07:07:51.873888", "MEAN_MOTION": 14.47300137, "ECCENTRICITY": 0.00404184, "INCLINATION": 74.0452, "RA_OF_ASC_NODE": 94.0128, "ARG_OF_PERICENTER": 245.1323, "MEAN_ANOMALY": 145.4668, "EPHEMERIS_TYPE": 0, "CLASSIFICATION_TYPE": "U", "NORAD_CAT_ID": 34732, "ELEMENT_SET_NO": 999, "REV_AT_EPOCH": 88137, "BSTAR": 0.00025007541, "MEAN_MOTION_DOT": 8.97e-06, "MEAN_MOTION_DDOT": 0}, "tle": {"line1": "1 34732U 93036ZA  25346.29712817  .00000897  00000+0  25008-3 0  9998", "line2": "2 34732  74.0452  94.0128 0040418 245.1323 145.4668 14.47300137881375"}}, "geometry": {"type": "Point", "coordinates": [121.05315299763578, 61.52343153818146]}}]}